NORAD_CAT_ID,OBJECT_NAME,OBJECT_TYPE,EPOCH,MEAN_MOTION,ECCENTRICITY,INCLINATION,RA_OF_ASC_NODE,ARG_OF_PERICENTER,MEAN_ANOMALY,BSTAR,MEAN_MOTION_DOT,MEAN_MOTION_DDOT,TLE_LINE0,TLE_LINE1,TLE_LINE2,SEMIMAJOR_AXIS,PERIOD,APOGEE,PERIGEE,DECAYED
51890.0,STARLINK-3519,PAYLOAD,2022-11-29 09:26:13,15.08844345,0.0002692,53.2183,329.5177,32.0951,328.0205,0.00019463,2.811e-05,0.0,0 STARLINK-3519,1 51890U 22022AQ  22333.39321207  .00002811  00000-0  19463-3 0  9999,2 51890  53.2183 329.5177 0002692  32.0951 328.0205 15.08844345 42648,6917.8669999999975,95.437,541.594,537.87,0.0
51890.0,STARLINK-3519,PAYLOAD,2022-11-29 17:23:09,15.08847847,0.0002779,53.2178,328.0309,33.5456,326.5711,0.00025337,3.747e-05,0.0,0 STARLINK-3519,1 51890U 22022AQ  22333.72441360  .00003747  00000-0  25337-3 0  9995,2 51890  53.2178 328.0309 0002779  33.5456 326.5711 15.08847847 42695,6917.856,95.437,541.644,537.799,0.0
51890.0,STARLINK-3519,PAYLOAD,2022-11-30 02:55:28,15.08834229,0.0002827,53.2176,326.2467,35.2245,324.8933,3.4191000000000013e-06,-2.34e-06,0.0,0 STARLINK-3519,1 51890U 22022AQ  22334.12186303 -.00000234  00000-0  34191-5 0  9992,2 51890  53.2176 326.2467 0002827  35.2245 324.8933 15.08834229 42751,6917.898,95.438,541.719,537.807,0.0
51890.0,STARLINK-3519,PAYLOAD,2022-11-30 09:17:03,15.08792137,0.0003148,53.2178,325.0577,38.6006,321.5211,0.0010151,0.00015884,0.0,0 STARLINK-3519,1 51890U 22022AQ  22334.38684842  .00015884  00000-0  10151-2 0  9994,2 51890  53.2178 325.0577 0003148  38.6006 321.5211 15.08792137 42799,6918.026999999999,95.441,542.069,537.714,0.0
51890.0,STARLINK-3519,PAYLOAD,2022-12-01 05:57:01,15.08846659,0.0002777,53.218,321.1909,34.0402,326.0768,0.00013654,1.886e-05,0.0,0 STARLINK-3519,1 51890U 22022AQ  22335.24793810  .00001886  00000-0  13654-3 0  9995,2 51890  53.2180 321.1909 0002777  34.0402 326.0768 15.08846659 42926,6917.86,95.437,541.646,537.804,0.0
51890.0,STARLINK-3519,PAYLOAD,2022-12-01 10:43:11,15.0883956,0.0002873,53.2174,320.2998,33.2526,326.8646,3.775e-05,3.12e-06,0.0,0 STARLINK-3519,1 51890U 22022AQ  22335.44666444  .00000312  00000-0  37750-4 0  9996,2 51890  53.2174 320.2998 0002873  33.2526 326.8646 15.08839560 42951,6917.882,95.438,541.734,537.759,0.0
51890.0,STARLINK-3519,PAYLOAD,2022-12-02 10:33:58,15.08845306,0.0002929,53.2174,315.8392,34.9818,325.1366,0.00024108,3.551e-05,0.0,0 STARLINK-3519,1 51890U 22022AQ  22336.44026222  .00003551  00000-0  24108-3 0  9991,2 51890  53.2174 315.8392 0002929  34.9818 325.1366 15.08845306 43107,6917.864000000001,95.437,541.755,537.703,0.0
51890.0,STARLINK-3519,PAYLOAD,2022-12-03 05:38:36,15.08837912,0.0002898999999999,53.2174,312.2709,37.154,322.9652,-3.9945e-05,-9.24e-06,0.0,0 STARLINK-3519,1 51890U 22022AQ  22337.23514529 -.00000924  00000-0 -39945-4 0  9990,2 51890  53.2174 312.2709 0002899  37.1540 322.9652 15.08837912 43223,6917.887,95.438,541.757,537.746,0.0
51890.0,STARLINK-3519,PAYLOAD,2022-12-03 08:49:22,15.08836683,0.000291,53.2174,311.6763,36.7435,323.3756,-5.6285e-05,-1.184e-05,0.0,0 STARLINK-3519,1 51890U 22022AQ  22337.36762601 -.00001184  00000-0 -56285-4 0  9995,2 51890  53.2174 311.6763 0002910  36.7435 323.3756 15.08836683 43244,6917.891,95.438,541.769,537.742,0.0
51890.0,STARLINK-3519,PAYLOAD,2022-12-03 15:10:55,15.08840323,0.0002906,53.2174,310.4869,36.751,323.3681,-8.3274e-06,-4.21e-06,0.0,0 STARLINK-3519,1 51890U 22022AQ  22337.63258412 -.00000421  00000-0 -83274-5 0  9997,2 51890  53.2174 310.4869 0002906  36.7510 323.3681 15.08840323 43284,6917.879,95.438,541.755,537.734,0.0
51890.0,STARLINK-3519,PAYLOAD,2022-12-04 02:18:37,15.0882789,0.0002686,53.2177,308.4052,41.3415,318.778,2.3295e-05,8.2e-07,0.0,0 STARLINK-3519,1 51890U 22022AQ  22338.09627114  .00000082  00000-0  23295-4 0  9994,2 51890  53.2177 308.4052 0002686  41.3415 318.7780 15.08827890 43359,6917.917,95.438,541.641,537.924,0.0
51890.0,STARLINK-3519,PAYLOAD,2022-12-04 07:04:47,15.08837399,0.0002598,53.2188,307.5132,41.651,318.4679,-6.5527e-05,-1.331e-05,0.0,0 STARLINK-3519,1 51890U 22022AQ  22338.29499271 -.00001331  00000-0 -65527-4 0  9991,2 51890  53.2188 307.5132 0002598  41.6510 318.4679 15.08837399 43383,6917.888000000001,95.438,541.5509999999998,537.956,0.0
51890.0,STARLINK-3519,PAYLOAD,2022-12-04 15:01:42,15.08851444,0.0002744,53.2189,306.0264,37.5909,322.5274,-5.6139e-05,-1.182e-05,0.0,0 STARLINK-3519,1 51890U 22022AQ  22338.62618222 -.00001182  00000-0 -56139-4 0  9990,2 51890  53.2189 306.0264 0002744  37.5909 322.5274 15.08851444 43433,6917.845,95.437,541.609,537.812,0.0
51890.0,STARLINK-3519,PAYLOAD,2022-12-05 06:55:33,15.08841192,0.000286,53.219,303.0529,38.6291,321.4905,0.00013601,1.877e-05,0.0,0 STARLINK-3519,1 51890U 22022AQ  22339.28858705  .00001877  00000-0  13601-3 0  9990,2 51890  53.2190 303.0529 0002860  38.6291 321.4905 15.08841192 43530,6917.877,95.437,541.72,537.763,0.0
51890.0,STARLINK-3519,PAYLOAD,2022-12-05 21:14:01,15.08850207,0.0003003999999999,53.2177,300.3764,40.4999,319.6216,0.00020471,2.972e-05,0.0,0 STARLINK-3519,1 51890U 22022AQ  22339.88474166  .00002972  00000-0  20471-3 0  9991,2 51890  53.2177 300.3764 0003004  40.4999 319.6216 15.08850207 43624,6917.849,95.437,541.7919999999998,537.636,0.0
51890.0,STARLINK-3519,PAYLOAD,2022-12-06 06:46:20,15.08850878,0.0002801,53.2177,298.5915,35.652,324.4659,0.00010046,1.311e-05,0.0,0 STARLINK-3519,1 51890U 22022AQ  22340.28217932  .00001311  00000-0  10046-3 0  9996,2 51890  53.2177 298.5915 0002801  35.6520 324.4659 15.08850878 43685,6917.847,95.437,541.65,537.774,0.0
51890.0,STARLINK-3519,PAYLOAD,2022-12-06 14:43:16,15.08837467,0.000288,53.2179,297.1047,35.9829,324.1357,-4.548e-05,-1.012e-05,0.0,0 STARLINK-3519,1 51890U 22022AQ  22340.61338695 -.00001012  00000-0 -45480-4 0  9994,2 51890  53.2179 297.1047 0002880  35.9829 324.1357 15.08837467 43737,6917.888000000001,95.438,541.745,537.761,0.0
51890.0,STARLINK-3519,PAYLOAD,2022-12-07 14:34:04,15.08841162,0.0003745,53.219,292.6461,33.3476,326.7751,4.370300000000001e-05,4.07e-06,0.0,0 STARLINK-3519,1 51890U 22022AQ  22341.60699091  .00000407  00000-0  43703-4 0  9995,2 51890  53.2190 292.6461 0003745  33.3476 326.7751 15.08841162 43880,6917.877,95.437,542.3330000000002,537.151,0.0
51890.0,STARLINK-3519,PAYLOAD,2022-12-08 03:17:08,15.08852052,0.0002659,53.2179,290.2656,32.1676,327.9478,0.00027147,4.036e-05,0.0,0 STARLINK-3519,1 51890U 22022AQ  22342.13690375  .00004036  00000-0  27147-3 0  9995,2 51890  53.2179 290.2656 0002659  32.1676 327.9478 15.08852052 43967,6917.844,95.437,541.548,537.869,0.0
51890.0,STARLINK-3519,PAYLOAD,2022-12-08 06:27:54,15.08853351,0.0002768,53.2177,289.6719,35.6827,324.4349,0.00032543,4.897e-05,0.0,0 STARLINK-3519,1 51890U 22022AQ  22342.26938314  .00004897  00000-0  32543-3 0  9998,2 51890  53.2177 289.6719 0002768  35.6827 324.4349 15.08853351 43988,6917.84,95.437,541.619,537.79,0.0
51890.0,STARLINK-3519,PAYLOAD,2022-12-09 06:18:40,15.08867201,0.0002148,53.2178,285.2145,38.505,321.6095,0.00036567,5.541e-05,0.0,0 STARLINK-3519,1 51890U 22022AQ  22343.26296926  .00005541  00000-0  36567-3 0  9992,2 51890  53.2178 285.2145 0002148  38.5050 321.6095 15.08867201 44130,6917.797,95.436,541.148,538.1759999999998,0.0
51890.0,STARLINK-3519,PAYLOAD,2022-12-09 20:37:10,15.08821243,0.0002579,53.2182,282.5349,37.962,322.1553,-0.00039274,-6.531e-05,0.0,0 STARLINK-3519,1 51890U 22022AQ  22343.85915164 -.00006531  00000-0 -39274-3 0  9999,2 51890  53.2182 282.5349 0002579  37.9620 322.1553 15.08821243 44226,6917.938,95.439,541.587,538.019,0.0
51890.0,STARLINK-3519,PAYLOAD,2022-12-10 06:09:29,15.08827735,0.000256,53.2172,280.7499,29.5225,330.5911,-0.00023904,-4.09e-05,0.0,0 STARLINK-3519,1 51890U 22022AQ  22344.25659082 -.00004090  00000-0 -23904-3 0  9999,2 51890  53.2172 280.7499 0002560  29.5225 330.5911 15.08827735 44288,6917.918000000002,95.438,541.554,538.012,0.0
51890.0,STARLINK-3519,PAYLOAD,2022-12-11 04:24:53,15.08838713,0.0002515,53.2172,276.5881,26.7571,333.3551,0.00020363,2.954e-05,0.0,0 STARLINK-3519,1 51890U 22022AQ  22345.18395365  .00002954  00000-0  20363-3 0  9994,2 51890  53.2172 276.5881 0002515  26.7571 333.3551 15.08838713 44424,6917.884,95.438,541.489,538.009,0.0
51890.0,STARLINK-3519,PAYLOAD,2022-12-11 06:00:16,15.08837732,0.0002539,53.2172,276.2908,26.4015,333.7106,0.00020636,2.997e-05,0.0,0 STARLINK-3519,1 51890U 22022AQ  22345.25019466  .00002997  00000-0  20636-3 0  9997,2 51890  53.2172 276.2908 0002539  26.4015 333.7106 15.08837732 44438,6917.887,95.438,541.509,537.996,0.0
51890.0,STARLINK-3519,PAYLOAD,2022-12-12 04:15:40,15.08845522,0.0002459,53.2167,272.128,26.9801,333.1319,0.00029115,4.349e-05,0.0,0 STARLINK-3519,1 51890U 22022AQ  22346.17755626  .00004349  00000-0  29115-3 0  9998,2 51890  53.2167 272.1280 0002459  26.9801 333.1319 15.08845522 44570,6917.864000000001,95.437,541.43,538.0269999999998,0.0
51890.0,STARLINK-3519,PAYLOAD,2022-12-12 18:34:09,15.08843641,0.0002532,53.2165,269.4517,27.994,332.1188,0.00015457,2.173e-05,0.0,0 STARLINK-3519,1 51890U 22022AQ  22346.77371623  .00002173  00000-0  15457-3 0  9992,2 51890  53.2165 269.4517 0002532  27.9940 332.1188 15.08843641 44660,6917.869000000002,95.437,541.486,537.9830000000002,0.0
51890.0,STARLINK-3519,PAYLOAD,2022-12-13 04:06:27,15.08846393,0.0002604,53.2167,267.6675,29.1194,330.9943,0.00020833,3.029e-05,0.0,0 STARLINK-3519,1 51890U 22022AQ  22347.17115580  .00003029  00000-0  20833-3 0  9990,2 51890  53.2167 267.6675 0002604  29.1194 330.9943 15.08846393 44721,6917.861,95.437,541.5269999999998,537.924,0.0
51890.0,STARLINK-3519,PAYLOAD,2022-12-13 18:24:56,15.08844324,0.0002646,53.2161,264.9915,31.0012,329.1136,0.00016233,2.296e-05,0.0,0 STARLINK-3519,1 51890U 22022AQ  22347.76731568  .00002296  00000-0  16233-3 0  9999,2 51890  53.2161 264.9915 0002646  31.0012 329.1136 15.08844324 44815,6917.8669999999975,95.437,541.563,537.9019999999998,0.0
